start=new Date('2022-11-08T00:00:00.000Z').valueOf();
sats=[{"ARG_OF_PERICENTER":"55.4438","MEAN_MOTION":"15.08845746","PERIAPSIS":"538.530","CENTER_NAME":"EARTH","FILE":"3648233","LAUNCH_DATE":"2022-03-03","GP_ID":"217107040","ELEMENT_SET_NO":"999","APOAPSIS":"540.925","COUNTRY_CODE":"US","REV_AT_EPOCH":"3925","RA_OF_ASC_NODE":"76.4163","TIME_SYSTEM":"UTC","OBJECT_ID":"2022-022AE","EPHEMERIS_TYPE":"0","SITE":"AFETR","OBJECT_NAME":"STARLINK-3566","MEAN_MOTION_DDOT":"0.0000000000000","PERIOD":"95.437","CLASSIFICATION_TYPE":"U","NORAD_CAT_ID":"51880","MEAN_MOTION_DOT":"0.00002919","BSTAR":"0.00020142000000","OBJECT_TYPE":"PAYLOAD","EPOCH":"2022-11-07T19:21:09.221472","REF_FRAME":"TEME","DECAY_DATE":null,"MEAN_ELEMENT_THEORY":"SGP4","SEMIMAJOR_AXIS":"6917.863","TLE_LINE1":"1 51880U 22022AE  22311.80635673  .00002919  00000-0  20142-3 0  9990","RCS_SIZE":"LARGE","ECCENTRICITY":"0.00017310","TLE_LINE2":"2 51880  53.2146  76.4163 0001731  55.4438 304.6718 15.08845746 39259","MEAN_ANOMALY":"304.6718","INCLINATION":"53.2146"},{"LAUNCH_DATE":"2022-03-03","APOAPSIS":"541.127","ELEMENT_SET_NO":"999","GP_ID":"217107292","ARG_OF_PERICENTER":"50.7418","FILE":"3648233","CENTER_NAME":"EARTH","PERIAPSIS":"538.469","MEAN_MOTION":"15.08822915","OBJECT_ID":"2022-022AF","EPHEMERIS_TYPE":"0","COUNTRY_CODE":"US","TIME_SYSTEM":"UTC","RA_OF_ASC_NODE":"66.3652","REV_AT_EPOCH":"3944","MEAN_MOTION_DDOT":"0.0000000000000","OBJECT_NAME":"STARLINK-3504","MEAN_MOTION_DOT":"0.00000697","NORAD_CAT_ID":"51881","CLASSIFICATION_TYPE":"U","PERIOD":"95.439","SITE":"AFETR","TLE_LINE2":"2 51881  53.2172  66.3652 0001921  50.7418 309.3744 15.08822915 39442","INCLINATION":"53.2172","MEAN_ANOMALY":"309.3744","DECAY_DATE":null,"EPOCH":"2022-11-07T19:37:00.208128","REF_FRAME":"TEME","OBJECT_TYPE":"PAYLOAD","BSTAR":"0.00006192400000","TLE_LINE1":"1 51881U 22022AF  22311.81736352  .00000697  00000-0  61924-4 0  9993","SEMIMAJOR_AXIS":"6917.933","RCS_SIZE":"LARGE","ECCENTRICITY":"0.00019210","MEAN_ELEMENT_THEORY":"SGP4"},{"EPHEMERIS_TYPE":"0","OBJECT_ID":"2022-022AG","TIME_SYSTEM":"UTC","RA_OF_ASC_NODE":"67.7884","REV_AT_EPOCH":"3939","COUNTRY_CODE":"US","APOAPSIS":"540.931","ELEMENT_SET_NO":"999","GP_ID":"217107543","LAUNCH_DATE":"2022-03-03","FILE":"3648233","CENTER_NAME":"EARTH","PERIAPSIS":"538.674","MEAN_MOTION":"15.08821221","ARG_OF_PERICENTER":"48.5040","INCLINATION":"53.2189","MEAN_ANOMALY":"311.6092","TLE_LINE2":"2 51882  53.2189  67.7884 0001631  48.5040 311.6092 15.08821221 39392","RCS_SIZE":"LARGE","TLE_LINE1":"1 51882U 22022AG  22311.49720826  .00002672  00000-0  18599-3 0  9991","ECCENTRICITY":"0.00016310","SEMIMAJOR_AXIS":"6917.938","MEAN_ELEMENT_THEORY":"SGP4","DECAY_DATE":null,"REF_FRAME":"TEME","EPOCH":"2022-11-07T11:55:58.793664","OBJECT_TYPE":"PAYLOAD","BSTAR":"0.00018599000000","MEAN_MOTION_DOT":"0.00002672","CLASSIFICATION_TYPE":"U","NORAD_CAT_ID":"51882","PERIOD":"95.439","OBJECT_NAME":"STARLINK-3570","MEAN_MOTION_DDOT":"0.0000000000000","SITE":"AFETR"},{"CENTER_NAME":"EARTH","PERIAPSIS":"538.385","MEAN_MOTION":"15.08829145","FILE":"3648233","ARG_OF_PERICENTER":"30.5436","ELEMENT_SET_NO":"999","GP_ID":"217106291","APOAPSIS":"541.172","LAUNCH_DATE":"2022-03-03","REV_AT_EPOCH":"3936","RA_OF_ASC_NODE":"66.9905","TIME_SYSTEM":"UTC","COUNTRY_CODE":"US","EPHEMERIS_TYPE":"0","OBJECT_ID":"2022-022AH","SITE":"AFETR","PERIOD":"95.438","MEAN_MOTION_DOT":"0.00003347","CLASSIFICATION_TYPE":"U","NORAD_CAT_ID":"51883","OBJECT_NAME":"STARLINK-3576","MEAN_MOTION_DDOT":"0.0000000000000","MEAN_ELEMENT_THEORY":"SGP4","TLE_LINE1":"1 51883U 22022AH  22311.67846931  .00003347  00000-0  22833-3 0  9994","RCS_SIZE":"LARGE","ECCENTRICITY":"0.00020140","SEMIMAJOR_AXIS":"6917.914","BSTAR":"0.00022833000000","OBJECT_TYPE":"PAYLOAD","DECAY_DATE":null,"EPOCH":"2022-11-07T16:16:59.748384","REF_FRAME":"TEME","INCLINATION":"53.2183","MEAN_ANOMALY":"329.5673","TLE_LINE2":"2 51883  53.2183  66.9905 0002014  30.5436 329.5673 15.08829145 39361"},{"ARG_OF_PERICENTER":"47.9243","FILE":"3648233","CENTER_NAME":"EARTH","MEAN_MOTION":"15.08824257","PERIAPSIS":"538.494","LAUNCH_DATE":"2022-03-03","APOAPSIS":"541.093","ELEMENT_SET_NO":"999","GP_ID":"217106541","COUNTRY_CODE":"US","RA_OF_ASC_NODE":"66.9376","TIME_SYSTEM":"UTC","REV_AT_EPOCH":"3945","OBJECT_ID":"2022-022AJ","EPHEMERIS_TYPE":"0","SITE":"AFETR","MEAN_MOTION_DDOT":"0.0000000000000","OBJECT_NAME":"STARLINK-3577","MEAN_MOTION_DOT":"0.00002638","NORAD_CAT_ID":"51884","CLASSIFICATION_TYPE":"U","PERIOD":"95.439","DECAY_DATE":null,"REF_FRAME":"TEME","EPOCH":"2022-11-07T16:31:31.834560","BSTAR":"0.00018385000000","OBJECT_TYPE":"PAYLOAD","ECCENTRICITY":"0.00018780","TLE_LINE1":"1 51884U 22022AJ  22311.68856290  .00002638  00000-0  18385-3 0  9994","RCS_SIZE":"LARGE","SEMIMAJOR_AXIS":"6917.929","MEAN_ELEMENT_THEORY":"SGP4","TLE_LINE2":"2 51884  53.2181  66.9376 0001878  47.9243 312.1908 15.08824257 39455","INCLINATION":"53.2181","MEAN_ANOMALY":"312.1908"},{"SITE":"AFETR","OBJECT_NAME":"STARLINK-3584","MEAN_MOTION_DDOT":"0.0000000000000","MEAN_MOTION_DOT":"0.00002150","CLASSIFICATION_TYPE":"U","NORAD_CAT_ID":"51885","PERIOD":"95.439","DECAY_DATE":null,"REF_FRAME":"TEME","EPOCH":"2022-11-07T16:10:19.915968","BSTAR":"0.00015323000000","OBJECT_TYPE":"PAYLOAD","TLE_LINE1":"1 51885U 22022AK  22311.67384162  .00002150  00000-0  15323-3 0  9996","SEMIMAJOR_AXIS":"6917.928","RCS_SIZE":"LARGE","ECCENTRICITY":"0.00018630","MEAN_ELEMENT_THEORY":"SGP4","TLE_LINE2":"2 51885  53.2176  67.0151 0001863  46.6454 313.4693 15.08824357 39363","INCLINATION":"53.2176","MEAN_ANOMALY":"313.4693","ARG_OF_PERICENTER":"46.6454","FILE":"3648233","CENTER_NAME":"EARTH","PERIAPSIS":"538.504","MEAN_MOTION":"15.08824357","LAUNCH_DATE":"2022-03-03","APOAPSIS":"541.082","ELEMENT_SET_NO":"999","GP_ID":"217107792","COUNTRY_CODE":"US","RA_OF_ASC_NODE":"67.0151","TIME_SYSTEM":"UTC","REV_AT_EPOCH":"3936","OBJECT_ID":"2022-022AK","EPHEMERIS_TYPE":"0"},{"LAUNCH_DATE":"2022-03-03","APOAPSIS":"541.007","GP_ID":"217108043","ELEMENT_SET_NO":"999","ARG_OF_PERICENTER":"52.4373","FILE":"3648233","PERIAPSIS":"538.500","MEAN_MOTION":"15.08837493","CENTER_NAME":"EARTH","OBJECT_ID":"2022-022AL","EPHEMERIS_TYPE":"0","COUNTRY_CODE":"US","RA_OF_ASC_NODE":"66.6858","TIME_SYSTEM":"UTC","REV_AT_EPOCH":"3938","OBJECT_NAME":"STARLINK-3565","MEAN_MOTION_DDOT":"0.0000000000000","CLASSIFICATION_TYPE":"U","NORAD_CAT_ID":"51886","MEAN_MOTION_DOT":"0.00002285","PERIOD":"95.438","SITE":"AFETR","TLE_LINE2":"2 51886  53.2184  66.6858 0001812  52.4373 307.6783 15.08837493 39383","MEAN_ANOMALY":"307.6783","INCLINATION":"53.2184","REF_FRAME":"TEME","EPOCH":"2022-11-07T17:56:19.080384","DECAY_DATE":null,"OBJECT_TYPE":"PAYLOAD","BSTAR":"0.00016165000000","TLE_LINE1":"1 51886U 22022AL  22311.74744306  .00002285  00000-0  16165-3 0  9999","ECCENTRICITY":"0.00018120","RCS_SIZE":"LARGE","SEMIMAJOR_AXIS":"6917.888","MEAN_ELEMENT_THEORY":"SGP4"},{"REV_AT_EPOCH":"3938","TIME_SYSTEM":"UTC","RA_OF_ASC_NODE":"66.4360","COUNTRY_CODE":"US","EPHEMERIS_TYPE":"0","OBJECT_ID":"2022-022AM","CENTER_NAME":"EARTH","MEAN_MOTION":"15.08836863","PERIAPSIS":"538.440","FILE":"3648233","ARG_OF_PERICENTER":"35.8807","ELEMENT_SET_NO":"999","GP_ID":"217106791","APOAPSIS":"541.070","LAUNCH_DATE":"2022-03-03","MEAN_ELEMENT_THEORY":"SGP4","RCS_SIZE":"LARGE","TLE_LINE1":"1 51887U 22022AM  22311.80263129  .00003124  00000-0  21433-3 0  9993","ECCENTRICITY":"0.00019010","SEMIMAJOR_AXIS":"6917.890","BSTAR":"0.00021433000000","OBJECT_TYPE":"PAYLOAD","DECAY_DATE":null,"REF_FRAME":"TEME","EPOCH":"2022-11-07T19:15:47.343456","INCLINATION":"53.2178","MEAN_ANOMALY":"324.2313","TLE_LINE2":"2 51887  53.2178  66.4360 0001901  35.8807 324.2313 15.08836863 39383","SITE":"AFETR","PERIOD":"95.438","MEAN_MOTION_DOT":"0.00003124","CLASSIFICATION_TYPE":"U","NORAD_CAT_ID":"51887","OBJECT_NAME":"STARLINK-3551","MEAN_MOTION_DDOT":"0.0000000000000"},{"TLE_LINE2":"2 51888  53.2169  67.2917 0001740  52.4144 307.7006 15.08838550 39369","INCLINATION":"53.2169","MEAN_ANOMALY":"307.7006","BSTAR":"0.00017963000000","OBJECT_TYPE":"PAYLOAD","DECAY_DATE":null,"REF_FRAME":"TEME","EPOCH":"2022-11-07T14:40:13.830816","MEAN_ELEMENT_THEORY":"SGP4","TLE_LINE1":"1 51888U 22022AN  22311.61127119  .00002572  00000-0  17963-3 0  9990","RCS_SIZE":"LARGE","SEMIMAJOR_AXIS":"6917.885","ECCENTRICITY":"0.00017400","MEAN_MOTION_DDOT":"0.0000000000000","OBJECT_NAME":"STARLINK-3536","PERIOD":"95.438","MEAN_MOTION_DOT":"0.00002572","CLASSIFICATION_TYPE":"U","NORAD_CAT_ID":"51888","SITE":"AFETR","OBJECT_ID":"2022-022AN","EPHEMERIS_TYPE":"0","COUNTRY_CODE":"US","REV_AT_EPOCH":"3936","TIME_SYSTEM":"UTC","RA_OF_ASC_NODE":"67.2917","LAUNCH_DATE":"2022-03-03","ELEMENT_SET_NO":"999","GP_ID":"217107041","APOAPSIS":"540.954","ARG_OF_PERICENTER":"52.4144","CENTER_NAME":"EARTH","MEAN_MOTION":"15.08838550","PERIAPSIS":"538.546","FILE":"3648233"},{"OBJECT_ID":"2022-022AP","EPHEMERIS_TYPE":"0","COUNTRY_CODE":"US","REV_AT_EPOCH":"3935","TIME_SYSTEM":"UTC","RA_OF_ASC_NODE":"67.3745","LAUNCH_DATE":"2022-03-03","GP_ID":"217107293","ELEMENT_SET_NO":"999","APOAPSIS":"541.323","ARG_OF_PERICENTER":"40.1928","PERIAPSIS":"538.209","MEAN_MOTION":"15.08833205","CENTER_NAME":"EARTH","FILE":"3648233","TLE_LINE2":"2 51889  53.2165  67.3745 0002251  40.1928 319.9230 15.08833205 39353","MEAN_ANOMALY":"319.9230","INCLINATION":"53.2165","BSTAR":"0.00014394000000","OBJECT_TYPE":"PAYLOAD","REF_FRAME":"TEME","EPOCH":"2022-11-07T14:13:44.732640","DECAY_DATE":null,"MEAN_ELEMENT_THEORY":"SGP4","TLE_LINE1":"1 51889U 22022AP  22311.59287885  .00002003  00000-0  14394-3 0  9999","SEMIMAJOR_AXIS":"6917.901","RCS_SIZE":"LARGE","ECCENTRICITY":"0.00022510","OBJECT_NAME":"STARLINK-3547","MEAN_MOTION_DDOT":"0.0000000000000","PERIOD":"95.438","CLASSIFICATION_TYPE":"U","NORAD_CAT_ID":"51889","MEAN_MOTION_DOT":"0.00002003","SITE":"AFETR"}];
